{
  "type": "FeatureCollection",
  "features": [
    {
      "type": "Feature",
      "properties": {
        "norad_id": 39766,
        "name": "ALOS-2",
        "group": "resource",
        "lat": 7.115080318067388,
        "lon": 79.52758892062366,
        "alt_km": 633.0703273553809,
        "timestamp": "2025-12-11T15:53:39.199192+00:00",
        "meta_object_name": "ALOS-2",
        "meta_object_id": "2014-029A",
        "meta_epoch": "2025-12-11T06:07:21.595584",
        "meta_mean_motion": 14.79463107,
        "meta_eccentricity": 0.00013716,
        "meta_inclination": 97.9224,
        "meta_ra_of_asc_node": 80.1223,
        "meta_arg_of_pericenter": 99.5646,
        "meta_mean_anomaly": 260.572,
        "meta_ephemeris_type": 0,
        "meta_classification_type": "U",
        "meta_norad_cat_id": 39766,
        "meta_element_set_no": 999,
        "meta_rev_at_epoch": 62379,
        "meta_bstar": 0.00052709887,
        "meta_mean_motion_dot": 3.886e-05,
        "meta_mean_motion_ddot": 0,
        "tle_line1": "1 39766U 14029A   25345.25511106  .00003886  00000+0  52710-3 0  9999",
        "tle_line2": "2 39766  97.9224  80.1223 0001371  99.5646 260.5720 14.79463107623794"
      },
      "geometry": {
        "type": "Point",
        "coordinates": [
          79.52758892062366,
          7.115080318067388
        ]
      }
    },
    {
      "type": "Feature",
      "properties": {
        "norad_id": 40010,
        "name": "KAZEOSAT 2",
        "group": "resource",
        "lat": -73.70823109178299,
        "lon": -16.95734316311102,
        "alt_km": 616.6494965283582,
        "timestamp": "2025-12-11T15:53:39.199202+00:00",
        "meta_object_name": "KAZEOSAT 2",
        "meta_object_id": "2014-033A",
        "meta_epoch": "2025-12-11T06:39:44.570016",
        "meta_mean_motion": 14.85165564,
        "meta_eccentricity": 0.0007548,
        "meta_inclination": 97.5504,
        "meta_ra_of_asc_node": 189.6674,
        "meta_arg_of_pericenter": 211.8267,
        "meta_mean_anomaly": 148.2493,
        "meta_ephemeris_type": 0,
        "meta_classification_type": "U",
        "meta_norad_cat_id": 40010,
        "meta_element_set_no": 999,
        "meta_rev_at_epoch": 62106,
        "meta_bstar": 0.00018793742,
        "meta_mean_motion_dot": 1.56e-05,
        "meta_mean_motion_ddot": 0,
        "tle_line1": "1 40010U 14033A   25345.27759919  .00001560  00000+0  18794-3 0  9997",
        "tle_line2": "2 40010  97.5504 189.6674 0007548 211.8267 148.2493 14.85165564621060"
      },
      "geometry": {
        "type": "Point",
        "coordinates": [
          -16.95734316311102,
          -73.70823109178299
        ]
      }
    },
    {
      "type": "Feature",
      "properties": {
        "norad_id": 40011,
        "name": "HODOYOSHI-4",
        "group": "resource",
        "lat": -25.447906606296126,
        "lon": 178.2135208026698,
        "alt_km": 621.8578767280396,
        "timestamp": "2025-12-11T15:53:39.199214+00:00",
        "meta_object_name": "HODOYOSHI-4",
        "meta_object_id": "2014-033B",
        "meta_epoch": "2025-12-11T07:56:14.913888",
        "meta_mean_motion": 14.87471267,
        "meta_eccentricity": 0.00231379,
        "meta_inclination": 97.5414,
        "meta_ra_of_asc_node": 174.2841,
        "meta_arg_of_pericenter": 205.6124,
        "meta_mean_anomaly": 154.3948,
        "meta_ephemeris_type": 0,
        "meta_classification_type": "U",
        "meta_norad_cat_id": 40011,
        "meta_element_set_no": 999,
        "meta_rev_at_epoch": 62087,
        "meta_bstar": 0.00032873709,
        "meta_mean_motion_dot": 2.94e-05,
        "meta_mean_motion_ddot": 0,
        "tle_line1": "1 40011U 14033B   25345.33072817  .00002940  00000+0  32874-3 0  9998",
        "tle_line2": "2 40011  97.5414 174.2841 0023137 205.6124 154.3948 14.87471267620875"
      },
      "geometry": {
        "type": "Point",
        "coordinates": [
          178.2135208026698,
          -25.447906606296126
        ]
      }
    },
    {
      "type": "Feature",
      "properties": {
        "norad_id": 40013,
        "name": "DEIMOS-2",
        "group": "resource",
        "lat": 68.43837371332805,
        "lon": 61.263649707644014,
        "alt_km": 581.4563037549315,
        "timestamp": "2025-12-11T15:53:39.199224+00:00",
        "meta_object_name": "DEIMOS-2",
        "meta_object_id": "2014-033D",
        "meta_epoch": "2025-12-11T05:45:04.374144",
        "meta_mean_motion": 14.92961046,
        "meta_eccentricity": 9.382e-05,
        "meta_inclination": 97.6062,
        "meta_ra_of_asc_node": 221.0896,
        "meta_arg_of_pericenter": 89.4301,
        "meta_mean_anomaly": 270.7026,
        "meta_ephemeris_type": 0,
        "meta_classification_type": "U",
        "meta_norad_cat_id": 40013,
        "meta_element_set_no": 999,
        "meta_rev_at_epoch": 60967,
        "meta_bstar": 0.00026431448,
        "meta_mean_motion_dot": 2.69e-05,
        "meta_mean_motion_ddot": 0,
        "tle_line1": "1 40013U 14033D   25345.23963396  .00002690  00000+0  26431-3 0  9994",
        "tle_line2": "2 40013  97.6062 221.0896 0000938  89.4301 270.7026 14.92961046609677"
      },
      "geometry": {
        "type": "Point",
        "coordinates": [
          61.263649707644014,
          68.43837371332805
        ]
      }
    },
    {
      "type": "Feature",
      "properties": {
        "norad_id": 40015,
        "name": "HODOYOSHI-3",
        "group": "resource",
        "lat": -82.37439981203356,
        "lon": -119.12147139329495,
        "alt_km": 600.4212044886272,
        "timestamp": "2025-12-11T15:53:39.199233+00:00",
        "meta_object_name": "HODOYOSHI-3",
        "meta_object_id": "2014-033F",
        "meta_epoch": "2025-12-11T06:35:36.293568",
        "meta_mean_motion": 14.8479975,
        "meta_eccentricity": 0.00318657,
        "meta_inclination": 97.62,
        "meta_ra_of_asc_node": 151.1735,
        "meta_arg_of_pericenter": 252.9517,
        "meta_mean_anomaly": 106.8207,
        "meta_ephemeris_type": 0,
        "meta_classification_type": "U",
        "meta_norad_cat_id": 40015,
        "meta_element_set_no": 999,
        "meta_rev_at_epoch": 61973,
        "meta_bstar": 0.00036480132,
        "meta_mean_motion_dot": 3.072e-05,
        "meta_mean_motion_ddot": 0,
        "tle_line1": "1 40015U 14033F   25345.27472562  .00003072  00000+0  36480-3 0  9990",
        "tle_line2": "2 40015  97.6200 151.1735 0031865 252.9517 106.8207 14.84799750619737"
      },
      "geometry": {
        "type": "Point",
        "coordinates": [
          -119.12147139329495,
          -82.37439981203356
        ]
      }
    },
    {
      "type": "Feature",
      "properties": {
        "norad_id": 40053,
        "name": "SPOT 7",
        "group": "resource",
        "lat": 80.93107880534596,
        "lon": -15.255238905193284,
        "alt_km": 682.2878833260575,
        "timestamp": "2025-12-11T15:53:39.199243+00:00",
        "meta_object_name": "SPOT 7",
        "meta_object_id": "2014-034A",
        "meta_epoch": "2025-12-11T07:16:57.306720",
        "meta_mean_motion": 14.60730666,
        "meta_eccentricity": 0.0001548,
        "meta_inclination": 98.0903,
        "meta_ra_of_asc_node": 47.4116,
        "meta_arg_of_pericenter": 88.4015,
        "meta_mean_anomaly": 271.7363,
        "meta_ephemeris_type": 0,
        "meta_classification_type": "U",
        "meta_norad_cat_id": 40053,
        "meta_element_set_no": 999,
        "meta_rev_at_epoch": 60970,
        "meta_bstar": 0.00017655578,
        "meta_mean_motion_dot": 8.15e-06,
        "meta_mean_motion_ddot": 0,
        "tle_line1": "1 40053U 14034A   25345.30344105  .00000815  00000+0  17656-3 0  9994",
        "tle_line2": "2 40053  98.0903  47.4116 0001548  88.4015 271.7363 14.60730666609700"
      },
      "geometry": {
        "type": "Point",
        "coordinates": [
          -15.255238905193284,
          80.93107880534596
        ]
      }
    },
    {
      "type": "Feature",
      "properties": {
        "norad_id": 40072,
        "name": "SKYSAT-B",
        "group": "resource",
        "lat": -78.50991582669468,
        "lon": -24.344319896392008,
        "alt_km": 616.0203249498991,
        "timestamp": "2025-12-11T15:53:39.199253+00:00",
        "meta_object_name": "SKYSAT-B",
        "meta_object_id": "2014-037D",
        "meta_epoch": "2025-12-11T06:34:32.084544",
        "meta_mean_motion": 14.87320197,
        "meta_eccentricity": 0.00060309,
        "meta_inclination": 98.3608,
        "meta_ra_of_asc_node": 288.9026,
        "meta_arg_of_pericenter": 154.6357,
        "meta_mean_anomaly": 205.5155,
        "meta_ephemeris_type": 0,
        "meta_classification_type": "U",
        "meta_norad_cat_id": 40072,
        "meta_element_set_no": 999,
        "meta_rev_at_epoch": 61802,
        "meta_bstar": 0.00037754166,
        "meta_mean_motion_dot": 3.348e-05,
        "meta_mean_motion_ddot": 0,
        "tle_line1": "1 40072U 14037D   25345.27398246  .00003348  00000+0  37754-3 0  9994",
        "tle_line2": "2 40072  98.3608 288.9026 0006030 154.6357 205.5155 14.87320197618026"
      },
      "geometry": {
        "type": "Point",
        "coordinates": [
          -24.344319896392008,
          -78.50991582669468
        ]
      }
    }
  ]
}